COSMOS 2558             
1 53323U 22089A   22241.69638264  .00011224  00000+0  26930-3 0  9994
2 53323  97.2354 339.6122 0011896 164.9166 195.2438 15.41468960  4293
SL-4 R/B                
1 53324U 22089B   22241.52118476  .00063293  33527-5  32782-3 0  9996
2 53324  97.2538 340.8544 0096466 325.2983  34.2011 15.74471543  4358
2022-090A               
1 53346U 22090A   22241.44888889 -.00003106  00000+0 -13751-3 0  9993
2 53346  97.4694 314.1105 0008125 159.1416  27.8983 15.20871329  3851
2022-090B               
1 53347U 22090B   22241.54683729  .00004426  00000+0  18668-3 0  9997
2 53347  97.4711 314.2552 0013022 182.9056 293.6708 15.23759302  3863
2022-090C               
1 53348U 22090C   22241.54490411  .00006228  00000+0  26048-3 0  9995
2 53348  97.4700 314.2522 0012145 186.0769 286.2101 15.23885436  3863
CZ-4B R/B               
1 53349U 22090D   22241.51245087  .00037100  26399-5  25435-3 0  9997
2 53349  97.5138 315.8380 0150853 296.1453  62.4357 15.60980133  3960
SBIRS GEO-6 (USA 336)   
1 53355U 22092A   22241.52389931  .00000116  00000+0  00000+0 0  9993
2 53355   6.5577 312.3683 0002135 334.2429  94.8657  1.00260266   324
ATLAS 5 CENTAUR R/B     
1 53356U 22092B   22241.24336676 -.00000035  00000+0  00000+0 0  9992
2 53356  16.4281 310.4225 5658671 182.1432 173.5825  1.99524756   494
PRC TEST SPACECRAFT2    
1 53357U 22093A   22241.85533126  .00000782  00000+0  26213-4 0  9997
2 53357  49.9955  38.5155 0177919 250.8892 263.5830 15.30897529  3864
CZ-2F R/B               
1 53358U 22093B   22241.49157105  .00007729  00000+0  15298-3 0  9995
2 53358  49.9915  40.2215 0179128 251.0921 107.0544 15.32647841  3808
CZ-2F DEB               
1 53359U 22093C   22241.44220267  .00083274  00000+0  14768-2 0  9990
2 53359  50.3071  42.6232 0228163 265.5499  91.9365 15.25735291  3785
CZ-2F DEB               
1 53360U 22093D   22241.51142595  .00087317  00000+0  17102-2 0  9994
2 53360  50.3308  43.1095 0240060 259.4972  97.8859 15.21219471  3776
CZ-2F DEB               
1 53361U 22093E   22241.49948814  .00071426  00000+0  18511-2 0  9999
2 53361  49.7537  46.4521 0333052 248.0693 108.4538 14.97425804  3720
CZ-2F DEB               
1 53362U 22093F   22241.55290682  .00069103  00000+0  18440-2 0  9990
2 53362  49.8071  46.8479 0346326 244.8257 111.6396 14.94200395  3720
CZ-2F DEB               
1 53363U 22093G   22241.50180484  .00897662  00000+0  74428-2 0  9991
2 53363  50.0269  38.4869 0158919 265.2751 204.8123 15.53101556  3839
CZ-2F DEB               
1 53364U 22093H   22241.29522668  .00000211  00000+0  36361-4 0  9994
2 53364  50.0291  47.1773 0110506 297.3880  61.5874 15.00048160  3693
DANURI (KPLO)           
1 53365U 22094A   22216.96995833  .00001843 -58274-5  00000+0 0  9991
2 53365  29.5000 147.2458 0003300 140.4700 307.5200 16.09976711    07
